JILIN-1 03              
1 41914U 17002B   26199.56504421  .00007339  00000+0  17237-3 0  9997
2 41914  97.1954 206.2234 0007705  70.4297 289.7782 15.42283654526694
CARTOSAT-2D             
1 41948U 17008A   26199.64123333  .00002760  00000+0  13393-3 0  9990
2 41948  97.4083 258.3567 0006213 129.5074 230.6711 15.19300168522356
CARTOSAT-2E             
1 42767U 17036C   26199.59320383  .00001823  00000+0  89675-4 0  9995
2 42767  97.4253 258.8749 0003562 175.5437 184.5831 15.19268367502914
IRIDIUM 113             
1 42803U 17039A   26199.28735148  .00000066  00000+0  16552-4 0  9996
2 42803  86.3992 309.1808 0002136  92.9199 267.2241 14.34217685475647
NORSAT 2                
1 42828U 17042D   26199.44935986  .00005178  00000+0  22659-3 0  9990
2 42828  97.4062  12.4092 0008049 304.8684  55.1795 15.22462571492491
TECHNOSAT               
1 42829U 17042E   26199.16474853  .00001358  00000+0  99292-4 0  9995
2 42829  97.4322 355.6525 0017144 353.8283   6.2730 15.05120470491360
FLYING LAPTOP           
1 42831U 17042G   26199.64585448  .00002050  00000+0  16311-3 0  9994
2 42831  97.4826 353.9983 0019543  21.5324 338.6718 15.01326759491172
WNISAT 1R               
1 42835U 17042L   26199.40690669  .00000306  00000+0  27853-4 0  9990
2 42835  97.4817 354.4137 0010433  54.5316 305.6882 15.01861207491199
LEMUR-2-GREENBERG       
1 42837U 17042N   26199.05111860  .00009701  00000+0  31416-3 0  9991
2 42837  97.3835  19.5561 0007322 247.3182 112.7286 15.32207983493114
LEMUR-2-FURIAUS         
1 42840U 17042R   26199.45805150  .00009448  00000+0  31589-3 0  9990
2 42840  97.3785  17.8461 0005694 315.3320  44.7462 15.31195052492999
CORVUS BC2              
1 42846U 17042X   26199.41495331  .00001184  00000+0  84157-4 0  9997
2 42846  97.4094 359.5594 0013123  12.1105 348.0435 15.06464802491769
CORVUS BC1              
1 42847U 17042Y   26199.33971893  .00001649  00000+0  11518-3 0  9997
2 42847  97.4125   0.3212 0011324 348.7981  11.2993 15.06629317491788
VRSS-2                  
1 42954U 17060A   26199.66693888  .00000894  00000+0  12086-3 0  9999
2 42954  97.6492 235.9745 0017132   2.6108 357.5192 14.81242398473119
MOHAMMED VI-A           
1 43005U 17070A   26199.64311470  .00000917  00000+0  13693-3 0  9991
2 43005  97.9544 271.5394 0001270  99.0846 261.0508 14.77107164468625
FENGYUN 3D              
1 43010U 17072A   26199.57904771 -.00000158  00000+0 -52801-4 0  9997
2 43010  99.0150 174.5720 0001378   7.7171 352.4026 14.19743973449447
NOAA 20 (JPSS-1)        
1 43013U 17073A   26199.57917276  .00000025  00000+0  32732-4 0  9997
2 43013  98.7772 138.7638 0001512 120.7288 239.4037 14.19516825448923
MAKERSAT 0              
1 43016U 17073D   26199.58482991  .00010616  00000+0  27996-3 0  9994
2 43016  97.4572  82.3624 0105621 160.2361 200.3022 15.33085965471274
RADFXSAT (FOX-1B)       
1 43017U 17073E   26199.55799028  .00003378  00000+0  14895-3 0  9995
2 43017  97.4661  66.1335 0148365 219.7444 139.2844 15.13088152470132
JILIN-1 04              
1 43022U 17074A   26199.60710251  .00007648  00000+0  17443-3 0  9995
2 43022  97.4879 310.0782 0005222  91.7596 268.4250 15.43187368479111
JILIN-1 05              
1 43023U 17074B   26199.62553901  .00003978  00000+0  12215-3 0  9999
2 43023  97.4882 306.2178 0006573 115.2620 244.9305 15.34315691478821
JILIN-1 06              
1 43024U 17074C   26199.60209996  .00003328  00000+0  10351-3 0  9998
2 43024  97.4807 303.1610 0008274 124.0376 236.1653 15.34019309478659
IRIDIUM 116             
1 43072U 17083C   26199.54105497  .00000122  00000+0  36525-4 0  9996
2 43072  86.3986 308.8948 0002530  99.7048 260.4434 14.34217048448660
IRIDIUM 130             
1 43073U 17083D   26199.30003826  .00000142  00000+0  43632-4 0  9993
2 43073  86.3994 309.2742 0002325 100.4244 259.7214 14.34218687448574
LKW-2                   
1 43080U 17084A   26199.62359196  .00005802  00000+0  22339-3 0  9999
2 43080  97.1171 237.9554 0003817 113.3000 246.8641 15.26719981476484
SUPERVIEW-1 03          
1 43099U 18002A   26199.61883183  .00009563  00000+0  23056-3 0  9992
2 43099  97.3124 284.4296 0046676  69.1251 291.4984 15.40287502473208
CARTOSAT-2F             
1 43111U 18004A   26199.62591841  .00003030  00000+0  14728-3 0  9996
2 43111  97.4766 258.9509 0002502 127.5417 232.6046 15.19191152472107
LKW-3                   
1 43146U 18006A   26199.65923341  .00004630  00000+0  13547-3 0  9998
2 43146  97.6644   1.4805 0003282 168.3692 191.7628 15.35789620473547
ASNARO-2                
1 43152U 18007A   26199.60379374  .00004242  00000+0  18656-3 0  9997
2 43152  97.3977 206.0405 0001748  91.3754 268.7683 15.22418282472193
