OBJECT_NAME,OBJECT_ID,EPOCH,MEAN_MOTION,ECCENTRICITY,INCLINATION,RA_OF_ASC_NODE,ARG_OF_PERICENTER,MEAN_ANOMALY,EPHEMERIS_TYPE,CLASSIFICATION_TYPE,NORAD_CAT_ID,ELEMENT_SET_NO,REV_AT_EPOCH,BSTAR,MEAN_MOTION_DOT,MEAN_MOTION_DDOT
JILIN-1 03,2017-002B,2026-07-18T13:33:39.819744,15.42283654,.00077051,97.1954,206.2234,70.4297,289.7782,0,U,41914,999,52669,.17237239E-3,.7339E-4,0
CARTOSAT-2D,2017-008A,2026-07-18T15:23:22.559712,15.19300168,.0006213,97.4083,258.3567,129.5074,230.6711,0,U,41948,999,52235,.13393018E-3,.276E-4,0
CARTOSAT-2E,2017-036C,2026-07-18T14:14:12.810912,15.19268367,.00035627,97.4253,258.8749,175.5437,184.5831,0,U,42767,999,50291,.89674717E-4,.1823E-4,0
IRIDIUM 113,2017-039A,2026-07-18T06:53:47.167872,14.34217685,.00021363,86.3992,309.1808,92.9199,267.2241,0,U,42803,999,47564,.16551972E-4,.66E-6,0
NORSAT 2,2017-042D,2026-07-18T10:47:04.691904,15.22462571,.00080493,97.4062,12.4092,304.8684,55.1795,0,U,42828,999,49249,.22658662E-3,.5178E-4,0
TECHNOSAT,2017-042E,2026-07-18T03:57:14.272992,15.05120470,.00171445,97.4322,355.6525,353.8283,6.2730,0,U,42829,999,49136,.9929248E-4,.1358E-4,0
FLYING LAPTOP,2017-042G,2026-07-18T15:30:01.827072,15.01326759,.00195434,97.4826,353.9983,21.5324,338.6718,0,U,42831,999,49117,.16311436E-3,.205E-4,0
WNISAT 1R,2017-042L,2026-07-18T09:45:56.738016,15.01861207,.00104331,97.4817,354.4137,54.5316,305.6882,0,U,42835,999,49119,.27852992E-4,.306E-5,0
LEMUR-2-GREENBERG,2017-042N,2026-07-18T01:13:36.647040,15.32207983,.00073229,97.3835,19.5561,247.3182,112.7286,0,U,42837,999,49311,.31415728E-3,.9701E-4,0
LEMUR-2-FURIAUS,2017-042R,2026-07-18T10:59:35.649600,15.31195052,.00056947,97.3785,17.8461,315.3320,44.7462,0,U,42840,999,49299,.31588602E-3,.9448E-4,0
CORVUS BC2,2017-042X,2026-07-18T09:57:31.965984,15.06464802,.00131235,97.4094,359.5594,12.1105,348.0435,0,U,42846,999,49176,.84156711E-4,.1184E-4,0
CORVUS BC1,2017-042Y,2026-07-18T08:09:11.715552,15.06629317,.00113246,97.4125,0.3212,348.7981,11.2993,0,U,42847,999,49178,.11517625E-3,.1649E-4,0
VRSS-2,2017-060A,2026-07-18T16:00:23.519232,14.81242398,.00171325,97.6492,235.9745,2.6108,357.5192,0,U,42954,999,47311,.12086495E-3,.894E-5,0
MOHAMMED VI-A,2017-070A,2026-07-18T15:26:05.110080,14.77107164,.00012709,97.9544,271.5394,99.0846,261.0508,0,U,43005,999,46862,.13692729E-3,.917E-5,0
FENGYUN 3D,2017-072A,2026-07-18T13:53:49.722144,14.19743973,.00013788,99.0150,174.5720,7.7171,352.4026,0,U,43010,999,44944,-.52800632E-4,-.158E-5,0
NOAA 20 (JPSS-1),2017-073A,2026-07-18T13:54:00.526464,14.19516825,.0001512,98.7772,138.7638,120.7288,239.4037,0,U,43013,999,44892,.32731681E-4,.25E-6,0
MAKERSAT 0,2017-073D,2026-07-18T14:02:09.304224,15.33085965,.0105621,97.4572,82.3624,160.2361,200.3022,0,U,43016,999,47127,.27996335E-3,.10616E-3,0
RADFXSAT (FOX-1B),2017-073E,2026-07-18T13:23:30.360192,15.13088152,.01483659,97.4661,66.1335,219.7444,139.2844,0,U,43017,999,47013,.14894574E-3,.3378E-4,0
JILIN-1 04,2017-074A,2026-07-18T14:34:13.656864,15.43187368,.00052226,97.4879,310.0782,91.7596,268.4250,0,U,43022,999,47911,.17443414E-3,.7648E-4,0
JILIN-1 05,2017-074B,2026-07-18T15:00:46.570464,15.34315691,.00065734,97.4882,306.2178,115.2620,244.9305,0,U,43023,999,47882,.1221458E-3,.3978E-4,0
JILIN-1 06,2017-074C,2026-07-18T14:27:01.436544,15.34019309,.00082749,97.4807,303.1610,124.0376,236.1653,0,U,43024,999,47865,.10350519E-3,.3328E-4,0
IRIDIUM 116,2017-083C,2026-07-18T12:59:07.149408,14.34217048,.00025309,86.3986,308.8948,99.7048,260.4434,0,U,43072,999,44866,.36524797E-4,.122E-5,0
IRIDIUM 130,2017-083D,2026-07-18T07:12:03.305664,14.34218687,.0002325,86.3994,309.2742,100.4244,259.7214,0,U,43073,999,44857,.43631597E-4,.142E-5,0
LKW-2,2017-084A,2026-07-18T14:57:58.345344,15.26719981,.00038172,97.1171,237.9554,113.3000,246.8641,0,U,43080,999,47648,.22338515E-3,.5802E-4,0
SUPERVIEW-1 03,2018-002A,2026-07-18T14:51:07.070112,15.40287502,.00466761,97.3124,284.4296,69.1251,291.4984,0,U,43099,999,47320,.2305572E-3,.9563E-4,0
CARTOSAT-2F,2018-004A,2026-07-18T15:01:19.350624,15.19191152,.00025028,97.4766,258.9509,127.5417,232.6046,0,U,43111,999,47210,.14727755E-3,.303E-4,0
LKW-3,2018-006A,2026-07-18T15:49:17.766624,15.35789620,.00032829,97.6644,1.4805,168.3692,191.7628,0,U,43146,999,47354,.1354701E-3,.463E-4,0
ASNARO-2,2018-007A,2026-07-18T14:29:27.779136,15.22418282,.0001748,97.3977,206.0405,91.3754,268.7683,0,U,43152,999,47219,.18656192E-3,.4242E-4,0
